[
  {
    "OBJECT_NAME": "STARLINK-5905",
    "OBJECT_ID": "23042A",
    "EPOCH": "2025-11-11T06:36:35.188992",
    "MEAN_MOTION": 15.02560299,
    "ECCENTRICITY": 0.0001268,
    "INCLINATION": 43.0054,
    "RA_OF_ASC_NODE": 339.9027,
    "ARG_OF_PERICENTER": 267.4904,
    "MEAN_ANOMALY": 92.5793,
    "EPHEMERIS_TYPE": 0,
    "CLASSIFICATION_TYPE": "U",
    "NORAD_CAT_ID": 55986,
    "ELEMENT_SET_NO": 999,
    "REV_AT_EPOCH": 14591,
    "BSTAR": 0.00032348,
    "MEAN_MOTION_DOT": 4.171e-05,
    "MEAN_MOTION_DDOT": 0.0,
    "TLE_LINE1": "1 55986U 23042A   25315.27540728  .00004171  00000+0  32348-3 0  9990",
    "TLE_LINE2": "2 55986  43.0054 339.9027 0001268 267.4904  92.5793 15.02560299145917",
    "COMMENT": "Grouped by shell and plane from TLE"
  },
  {
    "OBJECT_NAME": "STARLINK-5941",
    "OBJECT_ID": "23042AD",
    "EPOCH": "2025-11-11T03:28:10.358112",
    "MEAN_MOTION": 15.02541399,
    "ECCENTRICITY": 0.0001483,
    "INCLINATION": 43.0053,
    "RA_OF_ASC_NODE": 339.7729,
    "ARG_OF_PERICENTER": 270.5643,
    "MEAN_ANOMALY": 89.503,
    "EPHEMERIS_TYPE": 0,
    "CLASSIFICATION_TYPE": "U",
    "NORAD_CAT_ID": 56013,
    "ELEMENT_SET_NO": 999,
    "REV_AT_EPOCH": 14508,
    "BSTAR": 0.00013105000000000001,
    "MEAN_MOTION_DOT": 1.567e-05,
    "MEAN_MOTION_DDOT": 0.0,
    "TLE_LINE1": "1 56013U 23042AD  25315.14456433  .00001567  00000+0  13105-3 0  9993",
    "TLE_LINE2": "2 56013  43.0053 339.7729 0001483 270.5643  89.5030 15.02541399145087",
    "COMMENT": "Grouped by shell and plane from TLE"
  },
  {
    "OBJECT_NAME": "STARLINK-30964",
    "OBJECT_ID": "23180A",
    "EPOCH": "2025-11-11T03:02:41.126496",
    "MEAN_MOTION": 15.0253004,
    "ECCENTRICITY": 0.0001394,
    "INCLINATION": 43.0085,
    "RA_OF_ASC_NODE": 339.969,
    "ARG_OF_PERICENTER": 281.2407,
    "MEAN_ANOMALY": 78.8279,
    "EPHEMERIS_TYPE": 0,
    "CLASSIFICATION_TYPE": "U",
    "NORAD_CAT_ID": 58402,
    "ELEMENT_SET_NO": 999,
    "REV_AT_EPOCH": 10975,
    "BSTAR": 0.00026919,
    "MEAN_MOTION_DOT": 3.434e-05,
    "MEAN_MOTION_DDOT": 0.0,
    "TLE_LINE1": "1 58402U 23180A   25315.12686489  .00003434  00000+0  26919-3 0  9996",
    "TLE_LINE2": "2 58402  43.0085 339.9690 0001394 281.2407  78.8279 15.02530040109754",
    "COMMENT": "Grouped by shell and plane from TLE"
  },
  {
    "OBJECT_NAME": "STARLINK-30954",
    "OBJECT_ID": "23180F",
    "EPOCH": "2025-11-11T02:57:52.342272",
    "MEAN_MOTION": 15.02538985,
    "ECCENTRICITY": 0.0001454,
    "INCLINATION": 43.0058,
    "RA_OF_ASC_NODE": 339.9396,
    "ARG_OF_PERICENTER": 277.0155,
    "MEAN_ANOMALY": 83.0522,
    "EPHEMERIS_TYPE": 0,
    "CLASSIFICATION_TYPE": "U",
    "NORAD_CAT_ID": 58407,
    "ELEMENT_SET_NO": 999,
    "REV_AT_EPOCH": 10975,
    "BSTAR": 0.00015404,
    "MEAN_MOTION_DOT": 1.878e-05,
    "MEAN_MOTION_DDOT": 0.0,
    "TLE_LINE1": "1 58407U 23180F   25315.12352248  .00001878  00000+0  15404-3 0  9991",
    "TLE_LINE2": "2 58407  43.0058 339.9396 0001454 277.0155  83.0522 15.02538985109757",
    "COMMENT": "Grouped by shell and plane from TLE"
  },
  {
    "OBJECT_NAME": "STARLINK-30919",
    "OBJECT_ID": "23180K",
    "EPOCH": "2025-11-11T03:15:05.718240",
    "MEAN_MOTION": 15.02532541,
    "ECCENTRICITY": 0.0001071,
    "INCLINATION": 43.0033,
    "RA_OF_ASC_NODE": 339.1034,
    "ARG_OF_PERICENTER": 264.3967,
    "MEAN_ANOMALY": 95.6754,
    "EPHEMERIS_TYPE": 0,
    "CLASSIFICATION_TYPE": "U",
    "NORAD_CAT_ID": 58411,
    "ELEMENT_SET_NO": 999,
    "REV_AT_EPOCH": 10966,
    "BSTAR": 0.00010562000000000001,
    "MEAN_MOTION_DOT": 1.223e-05,
    "MEAN_MOTION_DDOT": 0.0,
    "TLE_LINE1": "1 58411U 23180K   25315.13548285  .00001223  00000+0  10562-3 0  9999",
    "TLE_LINE2": "2 58411  43.0033 339.1034 0001071 264.3967  95.6754 15.02532541109669",
    "COMMENT": "Grouped by shell and plane from TLE"
  },
  {
    "OBJECT_NAME": "STARLINK-30902",
    "OBJECT_ID": "23180V",
    "EPOCH": "2025-11-11T02:53:04.595712",
    "MEAN_MOTION": 15.02526012,
    "ECCENTRICITY": 0.0001373,
    "INCLINATION": 43.0067,
    "RA_OF_ASC_NODE": 339.9149,
    "ARG_OF_PERICENTER": 280.0585,
    "MEAN_ANOMALY": 80.0102,
    "EPHEMERIS_TYPE": 0,
    "CLASSIFICATION_TYPE": "U",
    "NORAD_CAT_ID": 58421,
    "ELEMENT_SET_NO": 999,
    "REV_AT_EPOCH": 10964,
    "BSTAR": 0.0001999,
    "MEAN_MOTION_DOT": 2.497e-05,
    "MEAN_MOTION_DDOT": 0.0,
    "TLE_LINE1": "1 58421U 23180V   25315.12019208  .00002497  00000+0  19990-3 0  9995",
    "TLE_LINE2": "2 58421  43.0067 339.9149 0001373 280.0585  80.0102 15.02526012109647",
    "COMMENT": "Grouped by shell and plane from TLE"
  },
  {
    "OBJECT_NAME": "STARLINK-30908",
    "OBJECT_ID": "23180Y",
    "EPOCH": "2025-11-11T01:34:35.395680",
    "MEAN_MOTION": 15.02522613,
    "ECCENTRICITY": 0.0002107,
    "INCLINATION": 43.0062,
    "RA_OF_ASC_NODE": 339.4204,
    "ARG_OF_PERICENTER": 280.1664,
    "MEAN_ANOMALY": 79.894,
    "EPHEMERIS_TYPE": 0,
    "CLASSIFICATION_TYPE": "U",
    "NORAD_CAT_ID": 58424,
    "ELEMENT_SET_NO": 999,
    "REV_AT_EPOCH": 10975,
    "BSTAR": 0.0,
    "MEAN_MOTION_DOT": -2.089e-05,
    "MEAN_MOTION_DDOT": 0.0,
    "TLE_LINE1": "1 58424U 23180Y   25315.06568745 -.00002089  00000+0 -13964-3 0  9990",
    "TLE_LINE2": "2 58424  43.0062 339.4204 0002107 280.1664  79.8940 15.02522613109758",
    "COMMENT": "Grouped by shell and plane from TLE"
  },
  {
    "OBJECT_NAME": "STARLINK-30965",
    "OBJECT_ID": "23186E",
    "EPOCH": "2025-11-11T02:35:06.312480",
    "MEAN_MOTION": 15.025436,
    "ECCENTRICITY": 0.0001371,
    "INCLINATION": 43.0037,
    "RA_OF_ASC_NODE": 338.7914,
    "ARG_OF_PERICENTER": 280.2704,
    "MEAN_ANOMALY": 79.7983,
    "EPHEMERIS_TYPE": 0,
    "CLASSIFICATION_TYPE": "U",
    "NORAD_CAT_ID": 58477,
    "ELEMENT_SET_NO": 999,
    "REV_AT_EPOCH": 10816,
    "BSTAR": 0.00016934,
    "MEAN_MOTION_DOT": 2.085e-05,
    "MEAN_MOTION_DDOT": 0.0,
    "TLE_LINE1": "1 58477U 23186E   25315.10771195  .00002085  00000+0  16934-3 0  9998",
    "TLE_LINE2": "2 58477  43.0037 338.7914 0001371 280.2704  79.7983 15.02543600108165",
    "COMMENT": "Grouped by shell and plane from TLE"
  },
  {
    "OBJECT_NAME": "STARLINK-33977",
    "OBJECT_ID": "25126A",
    "EPOCH": "2025-11-11T06:11:36.142944",
    "MEAN_MOTION": 14.98339503,
    "ECCENTRICITY": 0.0002984,
    "INCLINATION": 70.0019,
    "RA_OF_ASC_NODE": 333.0007,
    "ARG_OF_PERICENTER": 278.7185,
    "MEAN_ANOMALY": 81.3636,
    "EPHEMERIS_TYPE": 0,
    "CLASSIFICATION_TYPE": "U",
    "NORAD_CAT_ID": 64344,
    "ELEMENT_SET_NO": 999,
    "REV_AT_EPOCH": 2415,
    "BSTAR": 0.00014333000000000003,
    "MEAN_MOTION_DOT": 1.618e-05,
    "MEAN_MOTION_DDOT": 0.0,
    "TLE_LINE1": "1 64344U 25126A   25315.25805721  .00001618  00000+0  14333-3 0  9995",
    "TLE_LINE2": "2 64344  70.0019 333.0007 0002984 278.7185  81.3636 14.98339503 24151",
    "COMMENT": "Grouped by shell and plane from TLE"
  },
  {
    "OBJECT_NAME": "STARLINK-34426",
    "OBJECT_ID": "25126B",
    "EPOCH": "2025-11-11T07:41:29.223168",
    "MEAN_MOTION": 14.98343344,
    "ECCENTRICITY": 0.0003318,
    "INCLINATION": 70.0015,
    "RA_OF_ASC_NODE": 332.8146,
    "ARG_OF_PERICENTER": 273.6264,
    "MEAN_ANOMALY": 86.4515,
    "EPHEMERIS_TYPE": 0,
    "CLASSIFICATION_TYPE": "U",
    "NORAD_CAT_ID": 64345,
    "ELEMENT_SET_NO": 999,
    "REV_AT_EPOCH": 2295,
    "BSTAR": 0.00046504,
    "MEAN_MOTION_DOT": 5.462e-05,
    "MEAN_MOTION_DDOT": 0.0,
    "TLE_LINE1": "1 64345U 25126B   25315.32047712  .00005462  00000+0  46504-3 0  9998",
    "TLE_LINE2": "2 64345  70.0015 332.8146 0003318 273.6264  86.4515 14.98343344 22959",
    "COMMENT": "Grouped by shell and plane from TLE"
  },
  {
    "OBJECT_NAME": "STARLINK-34437",
    "OBJECT_ID": "25126C",
    "EPOCH": "2025-11-11T06:47:25.641024",
    "MEAN_MOTION": 14.98335732,
    "ECCENTRICITY": 0.0003091,
    "INCLINATION": 70.0014,
    "RA_OF_ASC_NODE": 333.0867,
    "ARG_OF_PERICENTER": 272.2262,
    "MEAN_ANOMALY": 87.8543,
    "EPHEMERIS_TYPE": 0,
    "CLASSIFICATION_TYPE": "U",
    "NORAD_CAT_ID": 64346,
    "ELEMENT_SET_NO": 999,
    "REV_AT_EPOCH": 2294,
    "BSTAR": 0.00028663,
    "MEAN_MOTION_DOT": 3.329e-05,
    "MEAN_MOTION_DDOT": 0.0,
    "TLE_LINE1": "1 64346U 25126C   25315.28293566  .00003329  00000+0  28663-3 0  9990",
    "TLE_LINE2": "2 64346  70.0014 333.0867 0003091 272.2262  87.8543 14.98335732 22940",
    "COMMENT": "Grouped by shell and plane from TLE"
  },
  {
    "OBJECT_NAME": "STARLINK-34407",
    "OBJECT_ID": "25126D",
    "EPOCH": "2025-11-11T06:53:40.363008",
    "MEAN_MOTION": 14.983414,
    "ECCENTRICITY": 0.00027,
    "INCLINATION": 70.0018,
    "RA_OF_ASC_NODE": 333.0969,
    "ARG_OF_PERICENTER": 272.4333,
    "MEAN_ANOMALY": 87.6517,
    "EPHEMERIS_TYPE": 0,
    "CLASSIFICATION_TYPE": "U",
    "NORAD_CAT_ID": 64347,
    "ELEMENT_SET_NO": 999,
    "REV_AT_EPOCH": 2294,
    "BSTAR": 0.00044887,
    "MEAN_MOTION_DOT": 5.268e-05,
    "MEAN_MOTION_DDOT": 0.0,
    "TLE_LINE1": "1 64347U 25126D   25315.28727272  .00005268  00000+0  44887-3 0  9997",
    "TLE_LINE2": "2 64347  70.0018 333.0969 0002700 272.4333  87.6517 14.98341400 22943",
    "COMMENT": "Grouped by shell and plane from TLE"
  },
  {
    "OBJECT_NAME": "STARLINK-34274",
    "OBJECT_ID": "25126E",
    "EPOCH": "2025-11-11T07:11:28.220352",
    "MEAN_MOTION": 14.98334852,
    "ECCENTRICITY": 0.0003154,
    "INCLINATION": 70.0015,
    "RA_OF_ASC_NODE": 333.1471,
    "ARG_OF_PERICENTER": 272.5503,
    "MEAN_ANOMALY": 87.5295,
    "EPHEMERIS_TYPE": 0,
    "CLASSIFICATION_TYPE": "U",
    "NORAD_CAT_ID": 64348,
    "ELEMENT_SET_NO": 999,
    "REV_AT_EPOCH": 2294,
    "BSTAR": 0.00029082,
    "MEAN_MOTION_DOT": 3.379e-05,
    "MEAN_MOTION_DDOT": 0.0,
    "TLE_LINE1": "1 64348U 25126E   25315.29963218  .00003379  00000+0  29082-3 0  9992",
    "TLE_LINE2": "2 64348  70.0015 333.1471 0003154 272.5503  87.5295 14.98334852 22949",
    "COMMENT": "Grouped by shell and plane from TLE"
  }
]